adress_key,street_address,city,country,alpha_2,zip_code
1,845 Pankratz Place,Chaumont,France,FR,52011 CEDEX
2,3264 Warner Court,Yanqi,China,CN,
3,05 Bultman Park,Hetang,China,CN,
4,4 Northport Hill,Luoshan,China,CN,
5,30 Roth Junction,Mont-Tremblant,Canada,CA,J8E
6,98802 Blackbird Circle,Yessentukskaya,Russia,RU,357637
7,831 Arkansas Way,Lengkongsari,Indonesia,ID,
8,7596 Hermina Street,Almere Stad,Netherlands,NL,1304
9,717 Schiller Terrace,Qihama,China,CN,
10,0890 Michigan Alley,Kambatatamakawu,Indonesia,ID,
11,9861 Barnett Junction,Emiliano Zapata,Mexico,MX,88759
12,5194 Northland Junction,Sīlat al Ḩārithīyah,Palestinian Territory,PS,
13,8693 Golf Course Terrace,Puning,China,CN,
14,3523 Steensland Crossing,Igurubi,Tanzania,TZ,
15,3 Monterey Drive,Loum,Cameroon,CM,
16,780 Rigney Trail,Lipu,China,CN,
17,08 Eastlawn Avenue,Bayan,Mongolia,MN,
18,604 Shasta Lane,Siquisique,Venezuela,VE,
19,42 Artisan Point,Nikhom Kham Soi,Thailand,TH,49130
20,7821 Independence Pass,Qingshu,China,CN,
21,43 Londonderry Drive,Cibingbin,Indonesia,ID,
22,90340 Messerschmidt Street,Mirotice,Czech Republic,CZ,364 71
23,945 Oak Valley Terrace,El Limon,Mexico,MX,39271
24,9227 Elgar Drive,Ipauçu,Brazil,BR,18950-000
25,9250 South Terrace,Mirošov,Czech Republic,CZ,592 55
26,4 Truax Terrace,Sixi,China,CN,
27,4 Talisman Court,Parada de Pinhão,Portugal,PT,5060-105
28,489 American Ash Drive,Shishang,China,CN,
29,0 Ridgeway Lane,Al Jawādīyah,Syria,SY,
30,4 Eastlawn Pass,Fortios,Portugal,PT,7300-655
31,4 Farmco Circle,Weixin,China,CN,
32,34 Boyd Center,Smokvica,Croatia,HR,23249
33,5 Mockingbird Center,Warri,Nigeria,NG,
34,968 Vera Point,Kebon,Indonesia,ID,
35,3450 Rowland Lane,Gojō,Japan,JP,648-0002
36,35292 Doe Crossing Drive,Puji,China,CN,
37,73817 Riverside Street,Niagara Falls,Canada,CA,L2J
38,2 Hauk Court,Changgang,China,CN,
39,0 Fairfield Court,Kalibunder,Indonesia,ID,
40,3882 Dennis Way,Pakalongan,Indonesia,ID,
41,53 Summer Ridge Junction,Vecpiebalga,Latvia,LV,
42,800 Waywood Drive,Besuki Dua,Indonesia,ID,
43,573 Grayhawk Trail,Langtou,China,CN,
44,61 Graedel Alley,Roanoke,United States,US,24048
45,457 Corry Street,Uritsk,Russia,RU,663594
46,6634 Redwing Plaza,Genengan Kulon,Indonesia,ID,
47,15733 Brickson Park Junction,Limbe,Cameroon,CM,
48,4 Del Mar Circle,Leixlip,Ireland,IE,A86
49,644 Sauthoff Avenue,Gävle,Sweden,SE,801 06
50,5 Anhalt Point,Modot,Mongolia,MN,
51,6 Schurz Avenue,Tonggu,China,CN,
52,0692 Straubel Parkway,Burla,Russia,RU,658810
53,3 John Wall Terrace,Hecheng,China,CN,
54,6224 Waxwing Lane,Fengshan,China,CN,
55,2146 Browning Road,Nevel’,Russia,RU,182520
56,55850 Mcguire Park,Lianpeng,China,CN,
57,9 Cottonwood Alley,Shilibu,China,CN,
58,6 Surrey Road,Cornillon,Haiti,HT,
59,39 Dayton Point,Kallar Kahār,Pakistan,PK,48761
60,365 Stuart Center,Yarīm,Yemen,YE,
61,988 Blue Bill Park Crossing,Marly,France,FR,57155
62,6 Hallows Court,San Pedro Masahuat,El Salvador,SV,
63,8 Del Sol Crossing,Kizil,China,CN,
64,2 Esch Street,Salaza,Philippines,PH,2211
65,0 Warner Court,Wincrange,Luxembourg,LU,L-9780
66,6500 Bonner Road,Vasyl'evsky Ostrov,Russia,RU,190990
67,16 Heffernan Park,Xitou,China,CN,
68,7799 Burning Wood Alley,Shebalino,Russia,RU,649220
69,53 Boyd Place,Río de Jesús,Panama,PA,
70,4 Florence Street,Guacamaya,Honduras,HN,
71,893 Redwing Parkway,Bunisari,Indonesia,ID,
72,7 Carioca Avenue,Aghavnadzor,Armenia,AM,
73,1 Oak Valley Drive,Tuusula,Finland,FI,04380
74,07 Florence Circle,Vacenovice,Czech Republic,CZ,675 51
75,66802 Anthes Alley,Forninho,Portugal,PT,2965-223
76,78351 Fairview Lane,Józefów,Poland,PL,24-340
77,4 Jay Junction,Göteborg,Sweden,SE,416 55
78,08 Corscot Plaza,Palocabildo,Colombia,CO,731587
79,56 Eastlawn Trail,Sumberkrajan,Indonesia,ID,
80,80 Northview Alley,Kansas City,United States,US,66160
81,3 Northridge Drive,Couço,Portugal,PT,2100-309
82,355 Kedzie Park,Notodden,Norway,NO,3675
83,84207 Everett Crossing,Karlstad,Sweden,SE,654 68
84,463 Waywood Center,Orlando,United States,US,32891
85,79 Dapin Park,Longos,Philippines,PH,1472
86,31 Birchwood Parkway,Novikovo,Russia,RU,659518
87,6809 North Hill,Jintang,China,CN,
88,283 Waubesa Drive,Desa Werasari,Indonesia,ID,
89,0 Green Terrace,Rybinsk,Russia,RU,433782
90,1 Dwight Terrace,Iba,Philippines,PH,2201
91,6360 Eagan Plaza,San Benito Abad,Colombia,CO,703018
92,5757 Nova Hill,Rathnew,Ireland,IE,R35
93,8 Fordem Crossing,Santa Catalina,Philippines,PH,2701
94,25500 Carey Pass,Dingqiao,China,CN,
95,10 Raven Court,Gastello,Russia,RU,694210
96,527 Cambridge Park,Ell,Luxembourg,LU,L-8531
97,3 Manley Point,Phanna Nikhom,Thailand,TH,47130
98,63561 Merry Park,Rāmsar,Iran,IR,
99,60 Doe Crossing Street,Weiyuan,China,CN,
100,12382 5th Drive,Zaojiacheng,China,CN,
101,2884 Eggendart Park,Piedrancha,Colombia,CO,525069
102,90 Green Ridge Junction,Sapotskin,Belarus,BY,
103,02 Michigan Point,Kawm Umbū,Egypt,EG,
104,328 Moose Park,Xinglin,China,CN,
105,20 Schurz Circle,Janiuay,Philippines,PH,5034
106,55037 Fuller Center,Granada,Colombia,CO,252257
107,8956 David Point,El Real,Venezuela,VE,
108,2 Pawling Avenue,Toroy,Indonesia,ID,
109,67818 Comanche Avenue,Penza,Russia,RU,440999
110,29 Bartelt Park,Karatau,Kazakhstan,KZ,
111,284 Karstens Road,Santa Maria,Brazil,BR,97000-000
112,101 Amoth Circle,Zongga,China,CN,
113,990 Emmet Junction,Matalam,Philippines,PH,9406
114,84054 Almo Court,Landskrona,Sweden,SE,261 45
115,87 Delaware Way,Zitong,China,CN,
116,02077 Fuller Road,Calvário,Portugal,PT,3740-228
117,653 Prentice Pass,Watari,Japan,JP,960-8141
118,01 Forest Run Pass,Xinjian,China,CN,
119,46396 Sage Point,Montpellier,France,FR,34294 CEDEX 5
120,8 Shoshone Street,Bolyarovo,Bulgaria,BG,8736
121,640 John Wall Plaza,Oued Laou,Morocco,MA,
122,253 Buena Vista Lane,Citeureup,Indonesia,ID,
123,592 Nova Lane,Alegrete,Brazil,BR,97540-000
124,63 Sachs Circle,Anju,China,CN,
125,9983 Talmadge Plaza,Gedangan,Indonesia,ID,
126,9 Melody Center,Gampola,Sri Lanka,LK,20500
127,18 Main Drive,Trŭn,Bulgaria,BG,2477
128,886 Autumn Leaf Park,Isniq,Kosovo,XK,
129,936 Elka Plaza,Ust’-Labinsk,Russia,RU,385321
130,89 Talisman Pass,Mailsi,Pakistan,PK,61200
131,2519 8th Street,Söderhamn,Sweden,SE,826 31
132,0 Hovde Court,Laventure,Mauritius,MU,
133,2 Superior Park,San Salvador,Peru,PE,
134,1 Lunder Crossing,Dno,Russia,RU,182670
135,23954 Glacier Hill Circle,Pont-Audemer,France,FR,27509 CEDEX
136,00 Elmside Terrace,Arauco,Chile,CL,
137,3 Portage Street,Changgou,China,CN,
138,46698 Park Meadow Hill,Ilihan,Philippines,PH,1745
139,4110 Lawn Lane,Ughelli,Nigeria,NG,
140,8 Lerdahl Drive,Xixiang,China,CN,
141,4925 Carey Circle,Kikerino,Russia,RU,188420
142,2458 Mosinee Place,Los Ángeles,Chile,CL,
143,51 Basil Drive,Ojo de Agua,Mexico,MX,51372
144,9 Brickson Park Center,Avignon,France,FR,84019 CEDEX 1
145,64 Golf View Drive,Eucaliptus,Bolivia,BO,
146,8 Kinsman Drive,Lubowidz,Poland,PL,09-304
147,7981 Nova Center,Gualaceo,Ecuador,EC,
148,8190 Basil Hill,Anhua Daying,China,CN,
149,157 Fieldstone Pass,Helsingborg,Sweden,SE,252 30
150,93 Nancy Street,Daru Rilwan,Gambia,GM,
151,9263 Hagan Street,Nicolas Bravo,Mexico,MX,40030
152,6420 Dorton Avenue,Āsmār,Afghanistan,AF,
153,46702 Arkansas Plaza,Santiago dos Velhos,Portugal,PT,2630-505
154,22651 Aberg Parkway,La Estrella,Colombia,CO,055468
155,2 Hooker Park,Villeneuve-la-Garenne,France,FR,92393 CEDEX
156,1 Shelley Road,Dongchen,China,CN,
157,01605 Hoepker Circle,Andongwei,China,CN,
158,2 Fairfield Crossing,Zhalinghu,China,CN,
159,78788 Steensland Plaza,Bantawora,Indonesia,ID,
160,34797 Pankratz Plaza,Dowsk,Belarus,BY,
161,9 Riverside Crossing,Ribeirão Pires,Brazil,BR,09400-000
162,96 Randy Street,Nossa Senhora da Glória,Brazil,BR,49680-000
163,84 Ludington Way,Votkinsk,Russia,RU,427439
164,1718 Sunfield Terrace,Nggelok,Indonesia,ID,
165,4 Westerfield Terrace,Tours,France,FR,37032 CEDEX 1
166,13 Bluestem Way,Tocoa,Honduras,HN,
167,47044 Bluejay Trail,Damatou,China,CN,
168,610 Orin Drive,Huế,Vietnam,VN,
169,0 Manitowish Drive,Hongmiao,China,CN,
170,6079 Mallard Parkway,Santa Maria,Mexico,MX,97714
171,611 Clove Way,Tembisa,South Africa,ZA,1693
172,07597 Loftsgordon Place,Chapayevka,Ukraine,UA,
173,515 Schmedeman Circle,Ambato,Ecuador,EC,
174,46578 Norway Maple Place,Ueno,Japan,JP,959-3213
175,05 Sunfield Way,Mibu,Japan,JP,731-1515
176,7043 Haas Pass,Tuanlin,China,CN,
177,641 Heffernan Circle,General Conesa,Argentina,AR,8503
178,67543 Thompson Park,Pirapozinho,Brazil,BR,19200-000
179,21 Manitowish Lane,Honolulu,United States,US,96825
180,85 Jay Plaza,Yejia,China,CN,
181,277 Farmco Street,Madison,United States,US,53716
182,600 Harper Avenue,Jinhui,China,CN,
183,0228 Warner Avenue,Huidong,China,CN,
184,74967 6th Alley,Noyakert,Armenia,AM,
185,75201 Lukken Crossing,Yuchi,China,CN,
186,884 Duke Plaza,Uozu,Japan,JP,938-0049
187,3 Comanche Lane,Kamenka,Russia,RU,241011
188,57056 Sherman Road,Velké Karlovice,Czech Republic,CZ,756 06
189,8 Truax Avenue,Volta Redonda,Brazil,BR,27200-000
190,21425 Riverside Terrace,Genova,Italy,IT,16124
191,1 Burning Wood Lane,Łęki,Poland,PL,38-473
192,432 Monument Court,Grangwav,Haiti,HT,
193,973 Elmside Terrace,Monching,Philippines,PH,7006
194,0 Autumn Leaf Crossing,Obock,Djibouti,DJ,
195,678 Arapahoe Way,Ḩadīdah,Syria,SY,
196,319 Blue Bill Park Point,Charlemagne,Canada,CA,J6V
197,6 Annamark Crossing,Žďár nad Sázavou,Czech Republic,CZ,592 11
198,2 Eagle Crest Trail,Sarimukti Kaler,Indonesia,ID,
199,074 Straubel Circle,Akkol’,Kazakhstan,KZ,
200,962 Little Fleur Circle,Yuncheng,China,CN,
201,398 Jenna Circle,Carodok,Indonesia,ID,
202,18 Lotheville Alley,Agía Foteiní,Greece,GR,
203,4053 Rusk Road,Sudimanik,Indonesia,ID,
204,839 Lakewood Terrace,Fengcun,China,CN,
205,6 Killdeer Place,Skopje,Macedonia,MK,1040
206,5 Anhalt Plaza,Gulonggang,China,CN,
207,99586 Schurz Court,Amaraji,Brazil,BR,55515-000
208,17782 North Park,Xiaohe,China,CN,
209,839 4th Alley,Daru Rilwan,Gambia,GM,
210,3 Leroy Junction,Lelekovice,Czech Republic,CZ,664 31
211,5 Northfield Point,Toshbuloq,Uzbekistan,UZ,
212,9 Victoria Terrace,Tānk,Pakistan,PK,82001
213,8299 Grim Lane,Baimiao,China,CN,
214,83 Nancy Point,Cruz Alta,Brazil,BR,98000-000
215,16 Roth Parkway,Tembisa,South Africa,ZA,1693
216,30147 Sunbrook Lane,Uhniv,Ukraine,UA,
217,07 Sundown Trail,Star’,Russia,RU,242640
218,79290 Moose Alley,Bakersfield,United States,US,93305
219,198 Victoria Park,Cerrito,Colombia,CO,681509
220,9100 Gina Terrace,Nytva,Russia,RU,617000
221,8 Washington Alley,Desovo,Macedonia,MK,6259
222,58 Swallow Junction,Fulin,China,CN,
223,3 Memorial Point,Shinpokh,Pakistan,PK,50001
224,8 Monterey Point,Playas,Ecuador,EC,
225,4383 Hayes Hill,Zorgo,Burkina Faso,BF,
226,9 Namekagon Plaza,Clearwater,United States,US,34629
227,92 Eagle Crest Terrace,La Joya,Mexico,MX,37600
228,5385 Moose Pass,Kandy,Sri Lanka,LK,20000
229,12528 Spohn Hill,Cimo de Vila,Portugal,PT,3700-755
230,29 Katie Pass,Beiqijia,China,CN,
231,57 Shasta Court,Paquera,Costa Rica,CR,60105
232,6 Walton Point,Ébolowa,Cameroon,CM,
233,27711 Holy Cross Street,Moita da Roda,Portugal,PT,2425-839
234,23646 Troy Circle,Chenguang,China,CN,
235,93 Beilfuss Parkway,Mölndal,Sweden,SE,431 87
236,22 Butterfield Lane,Karangparwa,Indonesia,ID,
237,015 Karstens Trail,Charqueadas,Brazil,BR,96745-000
238,93 International Street,Manila,Philippines,PH,1699
239,51 Lake View Drive,Gąsocin,Poland,PL,06-440
240,8361 Larry Drive,Wojciechów,Poland,PL,24-204
241,40 Gulseth Pass,Butha-Buthe,Lesotho,LS,
242,5 Lindbergh Pass,Mullsjö,Sweden,SE,565 31
243,0180 Fair Oaks Way,Gingsir,Indonesia,ID,
244,6771 Portage Place,Sergiyev Posad,Russia,RU,141309
245,0172 Lien Lane,Pensacola,United States,US,32575
246,44 Ryan Lane,Stockholm,Sweden,SE,106 42
247,661 Hoepker Center,Katakwi,Uganda,UG,
248,268 Lake View Drive,Guanting,China,CN,
249,08474 Maryland Street,Bystryanka,Russia,RU,659555
250,67203 Daystar Pass,Oslo,Norway,NO,0512
251,22447 Hudson Terrace,Gaojian,China,CN,
252,46 Morningstar Court,Vigo,Spain,ES,36210
253,15 Merrick Court,Gulong,China,CN,
254,8 Schiller Hill,Kivsharivka,Ukraine,UA,
255,81189 Derek Drive,Võhma,Estonia,EE,
256,25128 Parkside Plaza,Zhaojia,China,CN,
257,8791 Green Place,Asen,Bulgaria,BG,6151
258,6 Eagle Crest Point,Sison,Philippines,PH,8404
259,598 Green Ridge Trail,Rybnoye,Russia,RU,393917
260,16044 Graceland Alley,Lazaro Cardenas,Mexico,MX,60340
261,78052 Spohn Junction,Zhouwang,China,CN,
262,726 7th Point,Bahui,China,CN,
263,6440 Fallview Plaza,Kazo,Japan,JP,365-0023
264,286 Mariners Cove Point,Mina de São Domingos,Portugal,PT,7750-124
265,5327 Golf Drive,Phanat Nikhom,Thailand,TH,20140
266,31 Hagan Alley,Limoges,France,FR,87066 CEDEX 2
267,7950 Corben Alley,Nampera,Indonesia,ID,
268,1536 Scoville Hill,Luau,Angola,AO,
269,178 Village Place,San José del Guaviare,Colombia,CO,950009
270,3271 Victoria Hill,Bang Pakong,Thailand,TH,24130
271,9 Sheridan Center,Široki Brijeg,Bosnia and Herzegovina,BA,
272,9251 Dawn Road,Vineuil,France,FR,41355 CEDEX
273,0763 Memorial Center,Nangaroro,Indonesia,ID,
274,71 Corben Park,Hadapu Zhen,China,CN,
275,3614 Goodland Lane,Bayabas,Philippines,PH,8303
276,65761 Veith Park,Notranje Gorice,Slovenia,SI,1357
277,732 Ridge Oak Drive,Taichung,Taiwan,TW,
278,34 Milwaukee Junction,Tsukawaki,Japan,JP,879-4413
279,75 Donald Road,Lamu,Kenya,KE,
280,4 Graceland Hill,Bubullimë,Albania,AL,
281,0792 Shelley Circle,Kubachi,Russia,RU,368586
282,471 Leroy Terrace,Krajan,Indonesia,ID,
283,80120 Washington Trail,Aţ Ţaybah,Palestinian Territory,PS,
284,61 Mallory Pass,Baozi,China,CN,
285,146 Pond Pass,Skerries,Ireland,IE,K34
286,98 Longview Street,Ainaro,East Timor,TL,
287,482 Fairfield Crossing,Sedayulawas,Indonesia,ID,
288,9770 Hoepker Avenue,Kolochava,Ukraine,UA,
289,789 Sullivan Junction,Łopuszno,Poland,PL,26-070
290,31 Welch Lane,Ciénaga de Oro,Colombia,CO,232538
291,0501 Scoville Way,Chaínça,Portugal,PT,2495-205
292,291 Vidon Drive,Outapi,Namibia,NA,
293,29561 Jay Pass,Karvia,Finland,FI,39930
294,43 Meadow Vale Pass,Zdounky,Czech Republic,CZ,768 02
295,58 Cherokee Alley,Honjō,Japan,JP,369-1201
296,08 Spohn Center,Tucheng,China,CN,
297,2 Garrison Pass,Xieyang,China,CN,
298,09 Comanche Alley,Śmiłowo,Poland,PL,64-810
299,0 Fairview Way,Palaiomonástiron,Greece,GR,
300,82 Northwestern Street,Mikhaylov,Russia,RU,391710
301,022 Kropf Plaza,Sydney,Australia,AU,1109
302,631 Mcbride Court,Liborina,Colombia,CO,051468
303,56781 Mcbride Way,Lębork,Poland,PL,84-310
304,31 Redwing Terrace,Chamalières,France,FR,63409 CEDEX
305,005 Washington Trail,Diamantino,Brazil,BR,78400-000
306,6 Northwestern Circle,San Martin,Mexico,MX,56199
307,08052 Loftsgordon Lane,Wasquehal,France,FR,59444 CEDEX
308,2388 Fisk Center,Mengyin,China,CN,
309,90 Heffernan Place,Komono,Japan,JP,811-3122
310,36 Clemons Trail,Iperó,Brazil,BR,18560-000
311,6875 Schiller Drive,Dmanisi,Georgia,GE,
312,350 Myrtle Court,Huwan,China,CN,
313,81 Golden Leaf Parkway,Korczyna,Poland,PL,38-420
314,99876 Surrey Point,Birigui,Brazil,BR,16200-000
315,86559 Annamark Center,Pirané,Argentina,AR,3606
316,4 Arkansas Junction,Taganskiy,Russia,RU,662327
317,96054 Rigney Avenue,Mimbaan Timur,Indonesia,ID,
318,837 Everett Point,Changning,China,CN,
319,6 Oak Valley Pass,Kertosari,Indonesia,ID,
320,5072 Vernon Pass,Ongandjera,Namibia,NA,
321,68563 Ruskin Hill,Guanta,Venezuela,VE,
322,62 Debs Place,Strání,Czech Republic,CZ,687 65
323,36 Mccormick Circle,Uppsala,Sweden,SE,751 35
324,153 Rockefeller Circle,La Maná,Ecuador,EC,
325,0476 Milwaukee Crossing,San Martín Zapotitlán,Guatemala,GT,11006
326,872 Fieldstone Alley,Jianghong,China,CN,
327,5318 Loomis Park,Pretana,Indonesia,ID,
328,823 Katie Hill,Bichura,Russia,RU,671360
329,89425 Northview Road,Jatisari,Indonesia,ID,
330,583 Bowman Junction,Tha Muang,Thailand,TH,71110
331,387 La Follette Alley,Novo-Nikol’skoye,Russia,RU,607572
332,09 Briar Crest Terrace,Tukums,Latvia,LV,
333,86033 Little Fleur Alley,Chengcun,China,CN,
334,84 Basil Street,Ebene,Mauritius,MU,
335,4 Hudson Lane,Formosa,Brazil,BR,73800-000
336,21 Village Green Alley,Pirava,Macedonia,MK,7316
337,3482 Prentice Alley,Sumbergedong,Indonesia,ID,
338,435 Pennsylvania Circle,Iles,Colombia,CO,523068
339,40 Park Meadow Drive,Zlatni Pyasatsi,Bulgaria,BG,9194
340,27119 Ilene Circle,Kiffa,Mauritania,MR,
341,57 Bashford Trail,Al Mashāf,Yemen,YE,
342,6590 Fisk Circle,Jietou,China,CN,
343,824 Eggendart Road,Jialu,China,CN,
344,7 Cody Hill,Kauhan,Indonesia,ID,
345,69517 Randy Crossing,Kibiya,Nigeria,NG,
346,43 Grayhawk Plaza,Krasnotur’insk,Russia,RU,624449
347,4 Village Road,San Agustin,Philippines,PH,8305
348,06951 Sheridan Alley,Bindang,Indonesia,ID,
349,6415 Truax Junction,Aş Şanamayn,Syria,SY,
350,931 Columbus Way,Dimitrovgrad,Bulgaria,BG,6435
351,5852 Orin Parkway,Kuching,Malaysia,MY,93722
352,515 Melrose Lane,Campaka,Indonesia,ID,
353,563 Spenser Lane,Wolfsberg,Austria,AT,9421
354,9949 Kipling Court,Gizel’,Russia,RU,363125
355,15337 Drewry Street,Niechanowo,Poland,PL,62-220
356,0 Service Hill,Kassándreia,Greece,GR,
357,6831 Truax Circle,Talibura,Indonesia,ID,
358,8883 Pennsylvania Road,Shreveport,United States,US,71151
359,4759 Nevada Plaza,Güiria,Venezuela,VE,
360,90294 Forest Run Pass,Guanba,China,CN,
361,862 Hintze Center,Tây Hồ,Vietnam,VN,
362,954 Gulseth Avenue,Log pri Brezovici,Slovenia,SI,1358
363,32319 Dovetail Parkway,Imeni Zhelyabova,Russia,RU,162825
364,9 Harbort Drive,Bilyarsk,Russia,RU,422920
365,84124 Clyde Gallagher Pass,Salerno,Italy,IT,84124
366,68 Westport Parkway,Kolambugan,Philippines,PH,2100
367,8977 Marquette Place,Tegalwero,Indonesia,ID,
368,13 Hollow Ridge Court,Kozhevnikovo,Russia,RU,422338
369,423 Rutledge Circle,Kassándreia,Greece,GR,
370,72 Division Junction,Älvängen,Sweden,SE,446 38
371,83 Elka Alley,Vicuña,Chile,CL,
372,64188 Paget Circle,Bombardopolis,Haiti,HT,
373,84 Del Mar Crossing,Zeewolde,Netherlands,NL,3899
374,552 Bay Pass,Rio Claro,Trinidad and Tobago,TT,
375,17049 Crownhardt Trail,Huata,Peru,PE,
376,01700 Huxley Court,Pulorejo,Indonesia,ID,
377,4 Anthes Road,Aş Şūrah aş Şaghīrah,Syria,SY,
378,40 Rusk Place,Tupesy,Czech Republic,CZ,687 07
379,264 Clarendon Center,Vista Hermosa,Mexico,MX,38542
380,73 Oak Parkway,Sevsk,Russia,RU,242456
381,95487 Schurz Center,Santo Tomas,Philippines,PH,8112
382,6 Melrose Lane,Kašina,Croatia,HR,10362
383,0 Browning Road,Jingang,China,CN,
384,9496 Village Green Pass,Paris 07,France,FR,75353 SP 07
385,62042 Vermont Avenue,Salamanca,Philippines,PH,6313
386,38 Morning Center,Dori,Burkina Faso,BF,
387,679 Delaware Lane,Vila Maior,Portugal,PT,4525-485
388,871 Macpherson Road,Moyale,Kenya,KE,
389,0931 Fallview Court,Kandava,Latvia,LV,
390,960 Hanson Street,Kattaqo’rg’on,Uzbekistan,UZ,
391,062 Algoma Junction,Jiangcun,China,CN,
392,128 Bluestem Avenue,Pandan Niog,Philippines,PH,3313
393,3000 Mcguire Alley,Järfälla,Sweden,SE,175 54
394,03322 Mallard Place,San Jose,Mexico,MX,39266
395,6790 Pine View Hill,Ruma,Nigeria,NG,
396,286 Morningstar Hill,Krajan Kinanti,Indonesia,ID,
397,8 Annamark Place,Sonta,Serbia,RS,
398,1 5th Drive,Shuvakish,Russia,RU,620908
399,6111 Badeau Trail,Cayara,Peru,PE,
400,91 Golf Course Crossing,Baota,China,CN,
401,8904 Mandrake Terrace,Grubišno Polje,Croatia,HR,43290
402,23591 Dorton Circle,Tongshan,China,CN,
403,3 Russell Crossing,Mesa,Indonesia,ID,
404,50 Golf Drive,Fort McMurray,Canada,CA,T9J
405,273 Twin Pines Court,Xushangqiao,China,CN,
406,4 Truax Parkway,Pasongsongan,Indonesia,ID,
407,8122 Bluestem Hill,Brodek u Přerova,Czech Republic,CZ,751 03
408,7959 Havey Pass,Barberena,Guatemala,GT,06002
409,3 Dayton Alley,Mosina,Poland,PL,62-050
410,95740 Rigney Point,Berezniki,Russia,RU,618409
411,5681 Daystar Center,Dulangan,Philippines,PH,4113
412,10 Autumn Leaf Crossing,Arāk,Iran,IR,
413,434 Anthes Avenue,Chisec,Guatemala,GT,18006
414,41 Alpine Way,Repentigny,Canada,CA,J6V
415,67509 Buena Vista Plaza,Jiushe,China,CN,
416,487 Harbort Place,Kabin Buri,Thailand,TH,25110
417,0467 Old Shore Trail,Abrantes,Portugal,PT,2200-003
418,559 Vidon Place,Nikita,Ukraine,UA,
419,9592 Iowa Point,São José dos Pinhais,Brazil,BR,83000-000
420,6390 Ramsey Parkway,Yermolino,Russia,RU,249026
421,4987 Harper Road,Ábidos,Brazil,BR,75620-000
422,5378 Killdeer Park,La Bélgica,Bolivia,BO,
423,53 Moose Plaza,Hongshi,China,CN,
424,3 Algoma Plaza,Silab,Philippines,PH,1375
425,366 Kings Alley,Glogovac,Kosovo,XK,
426,43 Erie Court,Carice,Haiti,HT,
427,71 Stuart Trail,Ban Phai,Thailand,TH,40110
428,87515 Westridge Place,Pawa,Philippines,PH,4514
429,43051 Schlimgen Circle,Levin,New Zealand,NZ,5571
430,17571 New Castle Park,Tangkou,China,CN,
431,3281 Harper Street,Fengyang Fuchengzhen,China,CN,
432,8684 Holmberg Terrace,Primorsko-Akhtarsk,Russia,RU,353866
433,4947 Fairview Circle,Čoka,Serbia,RS,
434,6 Anhalt Court,Zheleznodorozhnyy,Russia,RU,238411
435,8465 Walton Crossing,Madara,Nigeria,NG,
436,9194 Emmet Junction,Rzhev,Russia,RU,172389
437,29552 Saint Paul Avenue,Taipalsaari,Finland,FI,54920
438,247 Alpine Way,Jiamachi,China,CN,
439,4 Crowley Terrace,Yong’an,China,CN,
440,5 Marquette Drive,Nunleu,Indonesia,ID,
441,06 Pearson Crossing,Lianyun,China,CN,
442,7225 Birchwood Plaza,Feteira Pequena,Portugal,PT,9630-311
443,823 Bonner Park,Paris La Défense,France,FR,92036 CEDEX
444,0 Heath Lane,Tamano,Japan,JP,976-0154
445,559 Annamark Road,Mhamid,Morocco,MA,
446,7 Garrison Terrace,Kiffa,Mauritania,MR,
447,78 Lakewood Plaza,Komyshuvakha,Ukraine,UA,
448,6370 Northland Circle,Caluquembe,Angola,AO,
449,2580 Hazelcrest Drive,Cedynia,Poland,PL,74-520
450,04289 Corscot Court,Pouzauges,France,FR,85708 CEDEX
451,8 Ohio Alley,Independence,United States,US,64054
452,392 Killdeer Alley,Chenzui,China,CN,
453,55660 Scofield Avenue,Harbutowice,Poland,PL,34-212
454,42 Washington Avenue,Sali,Croatia,HR,23281
455,66 Schiller Crossing,Yelan’,Russia,RU,396647
456,8306 Cambridge Junction,Pontian,Philippines,PH,8701
457,4 Sunbrook Place,Taihe Chengguanzhen,China,CN,
458,28 Melby Lane,Jinshan,China,CN,
459,83 Kennedy Hill,Presa,Portugal,PT,3070-385
460,10051 Johnson Drive,Uthai,Thailand,TH,13210
461,92 Walton Pass,Miramichi,Canada,CA,L7G
462,95 Maple Wood Hill,Heshi,China,CN,
463,01141 Reinke Hill,Pochep,Russia,RU,243418
464,688 Homewood Alley,Melun,France,FR,77014 CEDEX
465,764 Onsgard Drive,Mlangali,Tanzania,TZ,
466,710 Ramsey Road,La Jutosa,Honduras,HN,
467,547 Maywood Circle,Gunan,China,CN,
468,68 Duke Place,Česká Skalice,Czech Republic,CZ,552 03
469,4103 Carpenter Parkway,Faīẕābād,Afghanistan,AF,
470,88 Maple Way,Mesa,Indonesia,ID,
471,5547 Melody Pass,Stráž nad Nisou,Czech Republic,CZ,463 03
472,8395 Sutherland Point,Binzhou,China,CN,
473,60367 Cody Park,Xundian,China,CN,
474,83 Mcbride Court,Filipstad,Sweden,SE,682 24
475,5 Parkside Avenue,Mouzourás,Greece,GR,
476,47 Waubesa Way,Krasnogorskoye,Russia,RU,427650
477,34569 Prairieview Circle,Santiago dos Velhos,Portugal,PT,2630-505
478,6599 Laurel Circle,Stockholm,Sweden,SE,103 11
479,95091 Bunker Hill Plaza,Bratislava,Slovakia,SK,851 03
480,2 American Alley,Turmi,Ethiopia,ET,
481,6409 Sunnyside Drive,Usa River,Tanzania,TZ,
482,4652 Kim Plaza,Xinning,China,CN,
483,10227 Kropf Trail,Iberia,Peru,PE,
484,4 Bartillon Circle,Qianshan,China,CN,
485,1628 Continental Pass,Itanhandu,Brazil,BR,37464-000
486,903 Debs Way,Perico,Cuba,CU,
487,50 Shoshone Crossing,Yinhedahan’er,China,CN,
488,716 Troy Avenue,Gouqi,China,CN,
489,4644 Scofield Park,Conchopata,Peru,PE,
490,9 Oriole Point,Xifangcheng,China,CN,
491,54 Sundown Way,Maguilling,Philippines,PH,3527
492,9 Lien Hill,Bolyarovo,Bulgaria,BG,8736
493,852 Parkside Way,Mosar,Belarus,BY,
494,88035 Fair Oaks Place,Oltinko’l,Uzbekistan,UZ,
495,20189 Fieldstone Way,Krasnopillya,Ukraine,UA,
496,0143 Hermina Trail,Mets Parni,Armenia,AM,
497,940 Sycamore Court,Salimbalan,Philippines,PH,8706
498,99474 Golf Course Circle,Bang Mun Nak,Thailand,TH,66120
499,918 Autumn Leaf Alley,Molsheim,France,FR,67124 CEDEX
500,18 Merchant Junction,Chacabuco,Argentina,AR,2670
501,42 Morning Avenue,Borgholm,Sweden,SE,387 34
502,85232 Springview Plaza,Las Sabanas,Nicaragua,NI,
503,6934 Nobel Circle,Slobodskoy,Russia,RU,613155
504,42656 Sutherland Plaza,Ashley,United Kingdom,GB,SN13
505,66 Village Crossing,Sangatta,Indonesia,ID,
506,624 Crowley Hill,Brangsi,Indonesia,ID,
507,022 Kensington Road,Shpola,Ukraine,UA,
508,7 Ridge Oak Way,Houston,Canada,CA,T9G
509,02965 Artisan Crossing,Quimbaya,Colombia,CO,634027
510,22 East Parkway,Ganxi,China,CN,
511,87276 Bobwhite Pass,Lyon,France,FR,69441 CEDEX 03
512,389 Barby Point,Omu Aran,Nigeria,NG,
513,6 Straubel Street,Banjar Geriana Kangin,Indonesia,ID,
514,0063 Sullivan Center,Ramain,Philippines,PH,9713
515,6 Crowley Drive,Magole,Tanzania,TZ,
516,7336 Darwin Court,Pagak Kulon,Indonesia,ID,
517,10830 Riverside Junction,Salaš Crnobarski,Serbia,RS,
518,445 Cascade Drive,Zhanghua,China,CN,
519,9 Cardinal Alley,Vithkuq,Albania,AL,
520,7 Comanche Avenue,Pukë,Albania,AL,
521,405 Crowley Alley,Cabangahan,Philippines,PH,6131
522,05024 Shelley Drive,Karviná,Czech Republic,CZ,735 72
523,8 2nd Plaza,Ventanas,Ecuador,EC,
524,571 Rusk Way,Tiguion,Philippines,PH,2714
525,5030 Mallory Drive,Kaliterus,Indonesia,ID,
526,805 Eliot Crossing,Cotorra,Colombia,CO,230507
527,430 Myrtle Pass,Itigi,Tanzania,TZ,
528,656 Eastwood Parkway,Ballinteer,Ireland,IE,D6W
529,7496 Iowa Street,Lazo,Russia,RU,692980
530,0073 Boyd Circle,‘Anātā,Palestinian Territory,PS,
531,7 Caliangt Center,Shaoha,China,CN,
532,10 Hudson Circle,Zhoinda,China,CN,
533,1722 Golf Road,Jembatandua,Indonesia,ID,
534,2783 Algoma Plaza,Sơn Hà,Vietnam,VN,
535,37 Debs Avenue,Huacho,Peru,PE,
536,8202 Cody Center,Negla,Indonesia,ID,
537,17199 American Ash Way,Chirongui,Mayotte,YT,97620
538,7833 Rockefeller Drive,Punta Arenas,Chile,CL,
539,3 Sommers Alley,Tocopilla,Chile,CL,
540,73 Twin Pines Alley,Kamenka,Russia,RU,241011
541,44806 Summer Ridge Street,Santa Cruz,Mexico,MX,30560
542,18 Vidon Plaza,Pueblo Nuevo,Panama,PA,
543,0976 Goodland Road,Thị Trấn Văn Quan,Vietnam,VN,
544,53 Becker Place,Gaopeng,China,CN,
545,66 Vera Hill,Huanshan,China,CN,
546,046 Anniversary Crossing,Kuala Terengganu,Malaysia,MY,20504
547,769 Artisan Parkway,Lapachito,Argentina,AR,3514
548,39727 Larry Trail,Bijaepasu,Indonesia,ID,
549,965 Westport Junction,Baojiadian,China,CN,
550,63704 Sachs Avenue,Watangan,Indonesia,ID,
551,49930 Gerald Pass,Město,Czech Republic,CZ,364 61
552,348 Hansons Junction,Businga,Democratic Republic of the Congo,CD,
553,7075 Sunnyside Court,Huanghua,China,CN,
554,0 Wayridge Junction,Dukuhtengah,Indonesia,ID,
555,094 Bluejay Hill,Maguling,Philippines,PH,6313
556,1 New Castle Avenue,Mirocin,Poland,PL,37-565
557,62 Nelson Center,Larvik,Norway,NO,3271
558,359 Cascade Point,Kipushi,Democratic Republic of the Congo,CD,
559,12605 Goodland Road,Mogok,Myanmar,MM,
560,555 Myrtle Way,Pangu,China,CN,
561,511 Washington Junction,Peredovaya,Russia,RU,352275
562,5401 Reindahl Trail,San Isidro,Costa Rica,CR,12004
563,55 Sunfield Place,Serang,Indonesia,ID,
564,40444 Fairfield Street,Fukayachō,Japan,JP,370-0418
565,3 Schurz Avenue,Logung,Indonesia,ID,
566,25 Glacier Hill Street,Tongshan,China,CN,
567,28 Carberry Terrace,Obukhiv,Ukraine,UA,
568,30 Milwaukee Circle,Kretinga,Lithuania,LT,97001
569,193 Mayer Parkway,Sukowono,Indonesia,ID,
570,484 Mockingbird Pass,Andradina,Brazil,BR,16900-000
571,83 Mandrake Parkway,Västervik,Sweden,SE,593 93
572,94 Stuart Trail,Czarków,Poland,PL,43-243
573,7050 Granby Hill,Qianjin,China,CN,
574,73 Sunnyside Lane,San Antonio,Argentina,AR,4503
575,01 Kings Plaza,Elói Mendes,Brazil,BR,37110-000
576,7 Talmadge Parkway,Hucun,China,CN,
577,74 Kedzie Plaza,Las Vegas,United States,US,89115
578,11 Corscot Plaza,Barreiras,Portugal,PT,4990-434
579,08826 Killdeer Road,Breda,Netherlands,NL,4839
580,76262 Melody Parkway,Qarah Bāgh,Afghanistan,AF,
581,30810 Ronald Regan Junction,Chencun,China,CN,
582,1979 Russell Terrace,Remas,Albania,AL,
583,9027 Carey Drive,Banjar Anyar,Indonesia,ID,
584,83 Dennis Pass,Cunha,Brazil,BR,12530-000
585,05 6th Center,Borzechów,Poland,PL,24-224
586,2 Scott Circle,Opatov,Czech Republic,CZ,675 28
587,9488 Roth Plaza,Skrzyszów,Poland,PL,44-348
588,078 Grasskamp Alley,Sebedo,Indonesia,ID,
589,34615 Miller Avenue,Pittsburgh,United States,US,15286
590,12 Lyons Way,Cete,Portugal,PT,4580-313
591,37 Jana Plaza,Boguszów-Gorce,Poland,PL,58-371
592,097 Cottonwood Place,Herrljunga,Sweden,SE,524 24
593,39 Ridge Oak Junction,Igpit,Philippines,PH,9016
594,80 Hauk Parkway,Zhaobei,China,CN,
595,743 Gale Plaza,Yasothon,Thailand,TH,35000
596,679 High Crossing Junction,Hrtkovci,Serbia,RS,
597,1343 Holy Cross Point,Guandukou,China,CN,
598,7778 Springs Avenue,Banjar Ponggang,Indonesia,ID,
599,53 Butternut Place,Töreboda,Sweden,SE,545 35
600,5 Butterfield Avenue,Linhares,Portugal,PT,4620-620
601,82 Fremont Parkway,Nakhon Pathom,Thailand,TH,40140
602,93 Miller Hill,Puńsk,Poland,PL,16-515
603,71881 American Lane,Wichian Buri,Thailand,TH,67130
604,79 Waywood Plaza,Pura,Philippines,PH,2312
605,982 Warner Crossing,Petit Raffray,Mauritius,MU,
606,278 Surrey Court,Krasnaya Polyana,Russia,RU,352947
607,709 Vidon Parkway,Mizhhir’ya,Ukraine,UA,
608,52281 Rowland Lane,Ban Mai,Thailand,TH,50260
609,01 Mendota Parkway,Bulacan,Philippines,PH,3017
610,91934 Mcbride Terrace,Sausa,Peru,PE,
611,19078 Jenna Trail,Itagüí,Colombia,CO,055457
612,29 Hudson Way,Boston,United States,US,02114
613,65 Red Cloud Trail,Cilegong,Indonesia,ID,
614,985 Drewry Place,Balpyk Bī,Kazakhstan,KZ,
615,1 Mockingbird Circle,Qintang,China,CN,
616,0 Bunker Hill Lane,Xiacaoqiao,China,CN,
617,6061 New Castle Place,Nogent-sur-Marne,France,FR,94734 CEDEX
618,6935 Fisk Parkway,København,Denmark,DK,1707
619,73575 Eastlawn Road,Haruman,Indonesia,ID,
620,3345 Rockefeller Park,Charleston,United States,US,25331
621,06 Cottonwood Lane,Shagonar,Russia,RU,668210
622,052 Scott Lane,Fayzabad,Afghanistan,AF,
623,0045 Aberg Point,Catungawan Sur,Philippines,PH,6310
624,14419 Amoth Court,Kandava,Latvia,LV,
625,007 Colorado Drive,Leicheng,China,CN,
626,29739 Golf Center,Jorok Dalam,Indonesia,ID,
627,420 Mendota Place,Krasne,Ukraine,UA,
628,02186 Dovetail Point,Corralito,Argentina,AR,5853
629,62031 Green Ridge Junction,Ciego de Ávila,Cuba,CU,
630,9887 Victoria Place,Maués,Brazil,BR,69190-000
631,9983 Elmside Place,Wuchagou,China,CN,
632,84768 Nancy Place,Hejiadong,China,CN,
633,32 Loomis Drive,Armopa,Indonesia,ID,
634,5133 Sunfield Court,Paphos,Cyprus,CY,
635,50 Anzinger Lane,Benešov,Czech Republic,CZ,679 53
636,59184 Continental Trail,Węgorzyno,Poland,PL,73-155
637,0 Rigney Trail,Luqiao,China,CN,
638,18377 Granby Street,Dvorichna,Ukraine,UA,
639,688 Sloan Alley,Padre Burgos,Philippines,PH,6602
640,05 Muir Lane,Nanhuatang,China,CN,
641,593 Park Meadow Place,Kherson,Ukraine,UA,
642,84227 Packers Avenue,Şūr,Oman,OM,
643,6 Green Ridge Alley,Maco,Philippines,PH,8114
644,25 Nancy Avenue,Wirodayan,Indonesia,ID,
645,3 Mallard Hill,Méru,France,FR,60116 CEDEX
646,9 Lillian Crossing,Tianjiazhuang,China,CN,
647,39 Stone Corner Point,Loma Alta,Mexico,MX,87605
648,8 Monica Parkway,Zengtian,China,CN,
649,7 Cascade Circle,Fangshan,China,CN,
650,5164 Mandrake Way,Wierzchucino,Poland,PL,84-113
651,12 Katie Way,Liucheng,China,CN,
652,086 Daystar Street,Yunmen,China,CN,
653,63 Anhalt Park,Gaoping,China,CN,
654,49838 5th Way,Weton,Indonesia,ID,
655,702 Marquette Parkway,Ino,Japan,JP,911-0812
656,51 Fordem Alley,Mora,Sweden,SE,792 92
657,7676 Vernon Terrace,Jianping,China,CN,
658,5 Superior Street,San Luis,Mexico,MX,27400
659,2 Brickson Park Terrace,Vera,Argentina,AR,3550
660,11 Grim Junction,La Poma,Argentina,AR,4415
661,64160 Ridge Oak Lane,Cimo de Vila,Portugal,PT,3700-755
662,909 Sage Crossing,Kula,Bulgaria,BG,3818
663,329 5th Plaza,Changfa,China,CN,
664,31 Carpenter Place,Fort Abbās,Pakistan,PK,62021
665,3597 Jackson Lane,Rizó,Greece,GR,
666,050 Havey Parkway,Pruchnik,Poland,PL,37-560
667,40 Buell Place,Västerås,Sweden,SE,725 91
668,43745 Towne Plaza,Pittsburgh,United States,US,15240
669,281 Michigan Road,Jazovo,Serbia,RS,
670,4488 Manley Plaza,Winter Haven,United States,US,33884
671,5 Loomis Drive,Sacramento,United States,US,94250
672,03 Huxley Trail,Kastsyukovichy,Belarus,BY,
673,3 Arkansas Terrace,Aiánteio,Greece,GR,
674,932 Kedzie Park,Bordeaux,France,FR,33026 CEDEX
675,666 Coleman Road,Tuban,Philippines,PH,3803
676,766 Spaight Trail,Illéla,Niger,NE,
677,135 Waywood Point,Novosineglazovskiy,Russia,RU,456505
678,8698 Pearson Center,Hyesan-dong,North Korea,KP,
679,0568 Homewood Junction,Quiriquire,Venezuela,VE,
680,32231 Kenwood Crossing,Tagasilay,Philippines,PH,4435
681,51 Independence Terrace,Shicheng,China,CN,
682,9 Bowman Plaza,Santo Rosario,Philippines,PH,3114
683,755 Superior Hill,Yiyang,China,CN,
684,3 Rieder Alley,Pleiku,Vietnam,VN,
685,176 Russell Junction,Vyshniy Volochëk,Russia,RU,601803
686,08437 Grim Junction,Klang,Malaysia,MY,41918
687,77 Onsgard Circle,Kuala Terengganu,Malaysia,MY,20710
688,198 Southridge Junction,Gaojian,China,CN,
689,3 Upham Crossing,Tanshan,China,CN,
690,10 Mockingbird Center,Limoges,France,FR,87030 CEDEX 1
691,5606 Charing Cross Avenue,Kilifarevo,Bulgaria,BG,5056
692,9316 Londonderry Drive,Khadan Khāk,Pakistan,PK,23120
693,95949 Dryden Hill,Totoras,Argentina,AR,2144
694,9 Bunting Terrace,Rushanzhai,China,CN,
695,25 Hanson Drive,Tokorozawa,Japan,JP,988-0057
696,835 Marquette Parkway,Piasek,Poland,PL,43-211
697,3614 Stang Drive,Córdoba,Colombia,CO,523548
698,9 Dawn Road,Shinao,China,CN,
699,8927 Carberry Circle,Lacdayan,Philippines,PH,6329
700,512 Prentice Alley,Pruszków,Poland,PL,05-804
701,32 Fisk Crossing,Xindian,China,CN,
702,4 Northview Court,Kikinda,Serbia,RS,
703,3759 Dottie Avenue,Sofrino,Russia,RU,403159
704,40 Dennis Court,Lampa,Peru,PE,
705,625 Everett Lane,Cangkuang,Indonesia,ID,
706,315 Drewry Plaza,Chinchero,Peru,PE,
707,38935 Birchwood Alley,Cachoeirinha,Brazil,BR,77915-000
708,4 Acker Junction,Hufang,China,CN,
709,1632 Karstens Crossing,Maindang,Philippines,PH,1255
710,49 Schmedeman Hill,Marinhais,Portugal,PT,2125-106
711,6 Corry Place,Labuan,Malaysia,MY,87018
712,8 Moulton Park,Yashikera,Nigeria,NG,
713,963 Maryland Way,Zamboanguita,Philippines,PH,1812
714,8972 Monument Drive,Hubynykha,Ukraine,UA,
715,1 Carpenter Park,Neftekamsk,Russia,RU,452696
716,05 Sommers Avenue,Santa María de Jesús,Guatemala,GT,03011
717,701 Mitchell Parkway,General La Madrid,Argentina,AR,7406
718,55 Manley Point,Welisara,Sri Lanka,LK,11830
719,5 Raven Way,Minggang,China,CN,
720,1 Hagan Road,Spanish Town,Jamaica,JM,
721,05157 Clyde Gallagher Court,Idanre,Nigeria,NG,
722,13572 Banding Avenue,Rekovac,Serbia,RS,
723,6 Canary Terrace,Colmar,France,FR,68020 CEDEX
724,942 Jana Trail,Amarillo,United States,US,79171
725,29991 Park Meadow Pass,Vasilikón,Greece,GR,
726,33 Cody Road,Eskilstuna,Sweden,SE,632 32
727,69479 Towne Junction,Nová Paka,Czech Republic,CZ,509 01
728,04288 Montana Pass,Wanjia,China,CN,
729,419 School Way,Sufālat Samā’il,Oman,OM,
730,2 Veith Alley,Santa Eulalia,Peru,PE,
731,816 Sommers Street,Mintang,China,CN,
732,952 Green Ridge Crossing,Santana do Ipanema,Brazil,BR,57500-000
733,499 Steensland Center,Lentisqueira,Portugal,PT,3070-235
734,2 Ryan Point,Inongo,Democratic Republic of the Congo,CD,
735,86462 Riverside Hill,Tilcara,Argentina,AR,4624
736,26332 Orin Pass,Sumurber,Indonesia,ID,
737,44420 Monica Alley,Saint-Louis,Senegal,SN,
738,97 North Alley,Novocherkassk,Russia,RU,346408
739,66168 Waubesa Hill,Kolsko,Poland,PL,67-415
740,6 Petterle Pass,Novohrad-Volyns’kyy,Ukraine,UA,
741,325 Spaight Parkway,Puerto Guzmán,Colombia,CO,861088
742,4 Cambridge Plaza,Río Tercero,Argentina,AR,5850
743,8754 Ruskin Pass,Fagersta,Sweden,SE,737 42
744,01 Amoth Trail,Lubochnia,Poland,PL,97-217
745,3066 Barby Trail,Chulabhorn,Thailand,TH,58120
746,3394 Fulton Terrace,Fūman,Iran,IR,
747,925 Golf Course Center,Renchaoxi,China,CN,
748,86 Moose Plaza,Cipicung,Indonesia,ID,
749,667 Kipling Park,Tunis,Tunisia,TN,
750,18846 Upham Park,Manyana,Botswana,BW,
751,4 Bonner Hill,Pittsburgh,United States,US,15250
752,7 David Street,Parchal,Portugal,PT,8400-603
753,166 Ronald Regan Pass,Shitun,China,CN,
754,4 Ridgeview Lane,Storuman,Sweden,SE,923 98
755,8 Mayer Terrace,Matarraque,Portugal,PT,2785-366
756,90289 Crowley Hill,Zhiryatino,Russia,RU,242030
757,6438 Village Green Park,Cisaat,Indonesia,ID,
758,9 Donald Point,Longkou,China,CN,
759,61193 Gateway Way,Aiánteio,Greece,GR,
760,51250 Swallow Junction,Hutang,China,CN,
761,33673 Porter Crossing,Balungao,Philippines,PH,2442
762,4 Pepper Wood Drive,Tall Salḩab,Syria,SY,
763,361 Donald Avenue,Cihaur,Indonesia,ID,
764,2 Hollow Ridge Plaza,Saint Paul,United States,US,55188
765,0467 Cascade Junction,Aroeira,Portugal,PT,2820-023
766,2417 Arizona Park,Leipzig,Germany,DE,04109
767,52224 Hoepker Trail,Zhenshan,China,CN,
768,87 Donald Drive,Gamboula,Central African Republic,CF,
769,806 Kingsford Lane,Bryukhovetskaya,Russia,RU,352762
770,96 Manley Parkway,Lomba,Portugal,PT,3720-709
771,69707 Saint Paul Circle,Harjamukti,Indonesia,ID,
772,3 Muir Way,Apostolove,Ukraine,UA,
773,02 Old Gate Park,Rybnaya Sloboda,Russia,RU,422650
774,87 Sycamore Hill,Odiongan,Philippines,PH,5505
775,060 Stang Court,Kalabahi,Indonesia,ID,
776,03290 Montana Drive,Inhumas,Brazil,BR,75400-000
777,951 Clove Trail,Xingpinglu,China,CN,
778,710 Independence Crossing,Thatta,Pakistan,PK,73130
779,8301 Hanson Hill,Xigangzi,China,CN,
780,07504 Haas Street,Bolikhan,Laos,LA,
781,68 Ryan Way,Centenary,Zimbabwe,ZW,
782,58 Troy Terrace,Hongguang,China,CN,
783,0 Montana Hill,Lālmohan,Bangladesh,BD,8360
784,03032 Karstens Way,Stockholm,Sweden,SE,118 92
785,8 Oriole Road,Shatian,China,CN,
786,90219 Del Mar Pass,Qijiazuo,China,CN,
787,26 Tomscot Pass,Wierzchowo,Poland,PL,78-530
788,79 La Follette Circle,São José do Rio Preto,Brazil,BR,15000-000
789,903 Rieder Center,Gurgurnica,Macedonia,MK,7314
790,1 North Lane,An Lão,Vietnam,VN,
791,2747 Grasskamp Trail,Angono,Philippines,PH,1930
792,61 Rusk Road,Ra-ngae,Thailand,TH,96130
793,9 Reindahl Hill,Jeminay,China,CN,
794,700 Merrick Lane,Xiangfu,China,CN,
795,83289 Anhalt Center,Potok Złoty,Poland,PL,02-913
796,670 Pankratz Pass,Lefkoniko,Cyprus,CY,
797,861 Sunfield Street,Xishui,China,CN,
798,3076 Goodland Point,Pasarkayu,Indonesia,ID,
799,4049 Sunfield Avenue,Zunilito,Guatemala,GT,10009
800,44717 Dapin Junction,Krabi,Thailand,TH,58120
801,6198 Reindahl Alley,Knurów,Poland,PL,44-196
802,573 Barnett Circle,Moshenskoye,Russia,RU,174450
803,3 Bunker Hill Park,Dongting,China,CN,
804,72659 Schmedeman Street,Bagumbayan,Philippines,PH,9810
805,3989 Lakewood Gardens Alley,Tucheng,China,CN,
806,7 Heffernan Parkway,Babak,Philippines,PH,8118
807,3185 Ludington Hill,Qarshi,Uzbekistan,UZ,
808,47 Bellgrove Avenue,Sihe,China,CN,
809,070 Kenwood Park,Concepcion,Philippines,PH,7213
810,65183 Sycamore Parkway,Cocabamba,Peru,PE,
811,7012 Prairieview Point,Oeleu,Indonesia,ID,
812,68079 Hermina Street,Åstorp,Sweden,SE,265 40
813,066 Mitchell Drive,Nong Khai,Thailand,TH,48140
814,218 Sutteridge Way,Dong’an,China,CN,
815,4 Marquette Parkway,Huangtan,China,CN,
816,9103 Lakewood Lane,Shchëkino,Russia,RU,301259
817,76195 7th Parkway,Zangbi,China,CN,
818,0 Londonderry Junction,Kiryandongo,Uganda,UG,
819,63315 Armistice Trail,Gerong,Indonesia,ID,
820,76933 3rd Alley,Volzhsk,Russia,RU,363604
821,1 Boyd Place,Momil,Colombia,CO,232008
822,63 Packers Lane,Soledade,Brazil,BR,99300-000
823,186 Nancy Plaza,Montréal-Est,Canada,CA,J4N
824,60 Utah Drive,Donja Dubica,Bosnia and Herzegovina,BA,
825,30 Prairieview Trail,Barra do Bugres,Brazil,BR,78390-000
826,883 Gateway Place,Āsasa,Ethiopia,ET,
827,11888 Northland Lane,Kota Kinabalu,Malaysia,MY,88400
828,7 West Alley,Nagai,Japan,JP,986-0303
829,16132 Marquette Way,Knyszyn,Poland,PL,19-120
830,35 Messerschmidt Street,Shuguang,China,CN,
831,0 Farwell Parkway,Zhaigang,China,CN,
832,814 Westend Alley,Rizal,Philippines,PH,7104
833,290 Armistice Street,Raniżów,Poland,PL,36-130
834,6705 Hanson Street,Longzhou,China,CN,
835,47 Vera Street,Águas Vermelhas,Brazil,BR,39990-000
836,932 Saint Paul Road,Marigot,Saint Martin,MF,
837,11621 Gale Way,Yunga,Peru,PE,
838,2 Pleasure Junction,Hongguang,China,CN,
839,361 Bay Avenue,Bałtów,Poland,PL,27-423
840,83799 Schmedeman Circle,Monastir,Tunisia,TN,
841,7332 Dawn Point,Mo I Rana,Norway,NO,8607
842,58157 Dapin Center,Sochi,Russia,RU,354084
843,47 Steensland Point,Outokumpu,Finland,FI,83501
844,3472 Mosinee Center,Gaur,Nepal,NP,
845,17 Mallory Street,Sobue,Japan,JP,503-1305
846,716 Tennessee Pass,Valença,Brazil,BR,27600-000
847,28 Sycamore Park,Minchinābād,Pakistan,PK,58031
848,6 Corben Crossing,Luzern,Switzerland,CH,6005
849,0894 Hintze Parkway,Nuevitas,Cuba,CU,
850,82 Pierstorff Drive,Sugcad,Philippines,PH,1427
851,06 Rowland Center,Liudaogou,China,CN,
852,061 Hooker Pass,Tungipāra,Bangladesh,BD,8121
853,752 Warbler Alley,Ellös,Sweden,SE,474 31
854,838 6th Crossing,Muroran,Japan,JP,634-0814
855,982 6th Junction,Al Qurayshīyah,Yemen,YE,
856,4109 Sage Road,Araxá,Brazil,BR,38180-000
857,95 Talisman Lane,Vermelha,Portugal,PT,2550-523
858,2 Hoard Alley,Newark,United States,US,07104
859,07 Express Way,Nkwerre,Nigeria,NG,
860,1 Colorado Circle,Kotlyarevskaya,Russia,RU,361218
861,2 Twin Pines Alley,Miskolc,Hungary,HU,3527
862,7 Cascade Center,Progreso,Uruguay,UY,
863,1073 Springview Road,Campinas,Brazil,BR,13000-000
864,2927 Kinsman Avenue,Weiwangzhuang,China,CN,
865,67705 Carioca Hill,Teixoso,Portugal,PT,6200-595
866,2411 Roth Parkway,Boa Viagem,Brazil,BR,63870-000
867,5745 Huxley Hill,Manjing,China,CN,
868,683 Esch Way,Zhangting,China,CN,
869,37 Merry Pass,Paris 06,France,FR,75280 CEDEX 06
870,69 Judy Terrace,Shuangxikou,China,CN,
871,3 Vernon Circle,Kalibuntu,Indonesia,ID,
872,5177 Sycamore Point,Pemba,Mozambique,MZ,
873,7402 Maple Wood Pass,Storuman,Sweden,SE,923 98
874,25194 Kensington Place,Xagmakajor,China,CN,
875,1 Marquette Junction,Youkaichi,Japan,JP,958-0052
876,0 Lawn Pass,Lincoln,Argentina,AR,6070
877,6 Glendale Park,Kaltungo,Nigeria,NG,
878,14054 Westridge Court,Uttar Char Fasson,Bangladesh,BD,8701
879,0616 Toban Street,Adrasmon,Tajikistan,TJ,
880,7 Lillian Pass,Dangchang Chengguanzhen,China,CN,
881,3771 Killdeer Park,Niafunké,Mali,ML,
882,81 Carioca Drive,Dębowa Łąka,Poland,PL,87-207
883,0576 Hintze Street,Baytīn,Palestinian Territory,PS,
884,6669 Melrose Parkway,Sélestat,France,FR,67609 CEDEX
885,3 Warrior Circle,Jiang’an,China,CN,
886,28810 Farragut Park,Saari,Finland,FI,59511
887,51659 Gale Trail,Hvozdná,Czech Republic,CZ,763 11
888,938 Eastlawn Court,Assis,Brazil,BR,19800-000
889,653 Huxley Hill,Changfu,China,CN,
890,72 Crescent Oaks Point,Daxi,China,CN,
891,465 Cherokee Park,Foundiougne,Senegal,SN,
892,823 Forster Point,Shixi,China,CN,
893,874 Moulton Terrace,Rumbek,South Sudan,SS,
894,8 Hoepker Crossing,Ágios Stéfanos,Greece,GR,
895,640 Melrose Street,Tian’an,China,CN,
896,27806 Eagan Alley,Hayil,Saudi Arabia,SA,
897,21642 Ronald Regan Plaza,Tríkala,Greece,GR,
898,8 Fairfield Avenue,Jakhaly,Gambia,GM,
899,3 Porter Circle,Ryazhsk,Russia,RU,391964
900,793 Melby Way,Amaigbo,Nigeria,NG,
901,5475 Canary Way,Sakaiminato,Japan,JP,690-1315
902,1309 Browning Hill,Santa Ana,Peru,PE,
903,677 Eastwood Alley,Lat Lum Kaeo,Thailand,TH,12140
904,0 Artisan Road,Phú Vang,Vietnam,VN,
905,49 Monument Way,Choroszcz,Poland,PL,16-070
906,16275 Lindbergh Parkway,Kuala Lumpur,Malaysia,MY,50653
907,0655 Spenser Terrace,Montpellier,France,FR,34294 CEDEX 5
908,61989 Luster Avenue,Debrecen,Hungary,HU,4029
909,130 Luster Hill,Qabqir,China,CN,
910,669 Shopko Road,Jiuxian,China,CN,
911,2723 Red Cloud Pass,Biga,Philippines,PH,7413
912,17293 Acker Hill,Afanas’yeva,Russia,RU,399716
913,371 Cherokee Crossing,Tutup,Indonesia,ID,
914,71707 Green Ridge Court,Khon Buri,Thailand,TH,30250
915,23626 Fisk Parkway,Zhusha,China,CN,
916,6082 Little Fleur Court,Badaogu,China,CN,
917,26 Ridge Oak Center,Mochishche,Russia,RU,630534
918,0 Maryland Point,Kuiyong,China,CN,
919,21083 Prentice Court,Grand Rapids,United States,US,49505
920,96812 Miller Parkway,Xiaoying,China,CN,
921,41118 Welch Crossing,Doumuhu,China,CN,
922,3 Judy Center,Leipzig,Germany,DE,04109
923,18 David Way,Tanuma,Japan,JP,426-0061
924,052 Farragut Lane,Ploso,Indonesia,ID,
925,6 Cardinal Terrace,Pujiang,China,CN,
926,2150 Sachs Road,Rozivka,Ukraine,UA,
927,176 Mallard Junction,Viloco,Bolivia,BO,
928,562 Kim Road,Dougou,China,CN,
929,8752 Ruskin Park,Kalugmanan,Philippines,PH,8701
930,5358 Debs Avenue,Kavajë,Albania,AL,
931,8529 Oak Valley Alley,Lusaka,Zambia,ZM,
932,818 Dottie Parkway,Bolhrad,Ukraine,UA,
933,81 South Terrace,Canha,Portugal,PT,2985-006
934,9449 Hermina Junction,Bafia,Cameroon,CM,
935,8 Moose Lane,Kazimierz Dolny,Poland,PL,24-120
936,74 Heffernan Park,Tây Đằng,Vietnam,VN,
937,04770 Portage Terrace,Huiqi,China,CN,
938,22 Luster Way,Frei,Norway,NO,6524
939,0 Marcy Crossing,Sonsorol Village,Palau,PW,
940,261 Tennessee Alley,Baitouli,China,CN,
941,3984 Morning Circle,Batouri,Cameroon,CM,
942,06 Cottonwood Junction,Volot,Russia,RU,175100
943,052 Dahle Way,Laiyuan,China,CN,
944,262 Glacier Hill Drive,Beizheng,China,CN,
945,296 American Ash Point,Žleby,Czech Republic,CZ,679 23
946,74689 Sutteridge Way,Dawusu,China,CN,
947,6220 Mendota Terrace,Nanbao,China,CN,
948,01758 Waxwing Drive,Qili,China,CN,
949,89011 Stephen Park,Moramanga,Madagascar,MG,
950,13 Schlimgen Court,Jiuhe,China,CN,
951,87439 Village Green Plaza,Griboyedov,Armenia,AM,
952,21 Bunker Hill Trail,Al Badārī,Egypt,EG,
953,72 Hanson Park,Mawa,Indonesia,ID,
954,8 Green Ridge Court,Sarandi,Brazil,BR,99560-000
955,75 Manley Terrace,Timashëvsk,Russia,RU,352708
956,721 Porter Park,Gandrungmangu,Indonesia,ID,
957,20694 Mosinee Trail,Creil,France,FR,60109 CEDEX 1
958,515 Waubesa Street,Kopong,Botswana,BW,
959,01 Roxbury Plaza,Sami,Gambia,GM,
960,4 Rigney Place,Chirkey,Russia,RU,368219
961,22348 Village Street,Tekstil’shchiki,Russia,RU,678126
962,613 Burrows Street,Tuchomie,Poland,PL,77-133
963,12 Larry Circle,Santa Rosa de Copán,Honduras,HN,
964,2488 Parkside Road,Néa Karváli,Greece,GR,
965,899 Stephen Point,Hakui,Japan,JP,929-1576
966,9896 Morningstar Road,Xinyuan,China,CN,
967,44 Lawn Pass,Jaba‘,Palestinian Territory,PS,
968,7878 Russell Junction,Wuqishan,China,CN,
969,958 Pennsylvania Way,Västerås,Sweden,SE,721 00
970,17 Gulseth Plaza,Sredno Konjare,Macedonia,MK,1060
971,77 6th Junction,Bulungu,Democratic Republic of the Congo,CD,
972,6 Stuart Circle,Capitán Bado,Paraguay,PY,
973,7177 2nd Center,Lāmerd,Iran,IR,
974,1183 Aberg Center,Xingang,China,CN,
975,9 Butternut Park,Bongbong,Indonesia,ID,
976,51 Moulton Hill,Trzebunia,Poland,PL,32-438
977,8669 Independence Avenue,Far‘ūn,Palestinian Territory,PS,
978,8 Bowman Park,Golek,Indonesia,ID,
979,7499 Arkansas Alley,Daoxu,China,CN,
980,4098 Ilene Way,Bang Krathum,Thailand,TH,65110
981,44695 Green Ridge Parkway,Bata Tengah,Indonesia,ID,
982,14342 Mifflin Circle,Pandean,Indonesia,ID,
983,91 Truax Terrace,Havířov,Czech Republic,CZ,717 00
984,22 Hoepker Drive,Troyes,France,FR,10081 CEDEX
985,53 Summit Court,Mólos,Greece,GR,
986,903 Westerfield Place,Yangchengzhuang,China,CN,
987,0849 Loomis Plaza,Pasararba,Indonesia,ID,
988,81 Arrowood Street,Villamaría,Colombia,CO,176008
989,9753 Graedel Place,Dawan,China,CN,
990,51 Autumn Leaf Drive,Ushirombo,Tanzania,TZ,
991,542 Oxford Terrace,Balete,Philippines,PH,5614
992,9192 Cottonwood Street,Bassa,Nigeria,NG,
993,95 Merchant Avenue,Babakandesa,Indonesia,ID,
994,93096 Harper Hill,Odiongan,Philippines,PH,5505
995,591 Macpherson Hill,Vårby,Sweden,SE,143 31
996,13234 Fieldstone Plaza,Araguari,Brazil,BR,38440-000
997,90 Stephen Street,Rakhmanovo,Russia,RU,142145
998,87 Del Sol Drive,Futang,China,CN,
999,5753 Pepper Wood Park,Chacabuco,Argentina,AR,2670
1000,6597 Marcy Alley,Acharnés,Greece,GR,
